ONEWEB-0195             
1 48240U 21031AG  23264.55612249  .00000059  00000+0  12575-3 0  9992
2 48240  87.8995 128.6806 0001778  64.4999 295.6315 13.14502439116822
ONEWEB-0201             
1 48241U 21031AH  23264.55189486  .00000081  00000+0  18524-3 0  9990
2 48241  87.8987 128.7203 0001661  74.9851 285.1462 13.14502074117058
ONEWEB-0207             
1 48242U 21031AJ  23264.52651275  .00000146  00000+0  35897-3 0  9992
2 48242  87.8986 128.6930 0001475  80.1955 279.9341 13.14504426116960
ONEWEB-0208             
1 48243U 21031AK  23264.58042711 -.00000226  00000+0 -64323-3 0  9995
2 48243  87.8982 128.6987 0001788  69.4952 290.6370 13.14501179116989
ONEWEB-0200             
1 48244U 21031AL  23264.54446020  .00000231  00000+0  58991-3 0  9991
2 48244  87.8996 128.6943 0001765  67.8420 292.2897 13.14506015116902
ONEWEB-0217             
1 48245U 21031AM  23264.56139836 -.00000029  00000+0 -11233-3 0  9993
2 48245  87.8997 128.6758 0001893  66.0590 294.0737 13.14505173116850
ONEWEB-0211             
1 48767U 21045A   23264.55041021  .00000087  00000+0  19730-3 0  9996
2 48767  87.8938  98.2228 0001758  82.8316 277.3014 13.15550669112983
ONEWEB-0223             
1 48768U 21045B   23264.57152139 -.00000103  00000+0 -30869-3 0  9999
2 48768  87.8936  98.2234 0002118  77.7124 282.4243 13.15550424112979
